NORAD_CAT_ID,OBJECT_NAME,OBJECT_TYPE,EPOCH,MEAN_MOTION,ECCENTRICITY,INCLINATION,RA_OF_ASC_NODE,ARG_OF_PERICENTER,MEAN_ANOMALY,BSTAR,MEAN_MOTION_DOT,MEAN_MOTION_DDOT,TLE_LINE0,TLE_LINE1,TLE_LINE2,SEMIMAJOR_AXIS,PERIOD,APOGEE,PERIGEE,DECAYED
51793.0,STARLINK-3633,PAYLOAD,2024-07-13 16:09:37,15.08840143,0.0001382,53.2163,180.6673,88.8544,271.2606,1.4188e-05,-6.2e-07,0.0,0 STARLINK-3633,1 51793U 22017AB  24195.67335114 -.00000062  00000-0  14188-4 0  9993,2 51793  53.2163 180.6673 0001382  88.8544 271.2606 15.08840143132788,6917.88,95.438,540.701,538.789,0.0
51793.0,STARLINK-3633,PAYLOAD,2024-07-14 06:28:05,15.08843209,0.0001392,53.2163,177.9909,88.5418,271.5734,3.754e-05,3.1e-06,0.0,0 STARLINK-3633,1 51793U 22017AB  24196.26950869  .00000310  00000-0  37540-4 0  9991,2 51793  53.2163 177.9909 0001392  88.5418 271.5734 15.08843209132878,6917.871,95.437,540.699,538.773,0.0
51793.0,STARLINK-3633,PAYLOAD,2024-07-14 16:00:24,15.08839415,0.0001397,53.2164,176.206,85.0973,275.0179,3.9262e-05,3.37e-06,0.0,0 STARLINK-3633,1 51793U 22017AB  24196.66695094  .00000337  00000-0  39262-4 0  9993,2 51793  53.2164 176.2060 0001397  85.0973 275.0179 15.08839415132935,6917.882,95.438,540.714,538.781,0.0
51793.0,STARLINK-3633,PAYLOAD,2024-07-15 06:18:52,15.08841861,0.0001412,53.2163,173.5292,87.2501,272.8652,6.8504e-05,8.03e-06,0.0,0 STARLINK-3633,1 51793U 22017AB  24197.26310951  .00000803  00000-0  68504-4 0  9995,2 51793  53.2163 173.5292 0001412  87.2501 272.8652 15.08841861133020,6917.875,95.437,540.717,538.763,0.0
51793.0,STARLINK-3633,PAYLOAD,2024-07-15 15:51:11,15.08841601,0.0001422,53.2164,171.7455,86.9243,273.1912,5.5714e-05,5.99e-06,0.0,0 STARLINK-3633,1 51793U 22017AB  24197.66055009  .00000599  00000-0  55714-4 0  9990,2 51793  53.2164 171.7455 0001422  86.9243 273.1912 15.08841601133083,6917.875,95.437,540.724,538.757,0.0
51793.0,STARLINK-3633,PAYLOAD,2024-07-16 04:34:16,15.08843041,0.0001364,53.2159,169.3669,90.937,269.1778,3.9428e-05,3.4e-06,0.0,0 STARLINK-3633,1 51793U 22017AB  24198.19046889  .00000340  00000-0  39428-4 0  9993,2 51793  53.2159 169.3669 0001364  90.9370 269.1778 15.08843041133162,6917.871,95.437,540.68,538.792,0.0
51793.0,STARLINK-3633,PAYLOAD,2024-07-17 04:25:03,15.08843664,0.0001372,53.2158,164.9081,86.098,274.0169,4.2281e-05,3.85e-06,0.0,0 STARLINK-3633,1 51793U 22017AB  24199.18406799  .00000385  00000-0  42281-4 0  9993,2 51793  53.2158 164.9081 0001372  86.0980 274.0169 15.08843664133319,6917.869,95.437,540.683,538.785,0.0
51793.0,STARLINK-3633,PAYLOAD,2024-07-17 07:35:49,15.08847068,0.0001471,53.2172,164.3118,90.4445,269.6716,7.1003e-05,8.42e-06,0.0,0 STARLINK-3633,1 51793U 22017AB  24199.31654465  .00000842  00000-0  71003-4 0  9995,2 51793  53.2172 164.3118 0001471  90.4445 269.6716 15.08847068133337,6917.859,95.437,540.741,538.706,0.0
51793.0,STARLINK-3633,PAYLOAD,2024-07-18 04:15:50,15.08838326,0.0001359,53.2164,160.4448,98.2583,261.8564,1.596e-05,-3.4e-07,0.0,0 STARLINK-3633,1 51793U 22017AB  24200.17767329 -.00000034  00000-0  15960-4 0  9990,2 51793  53.2164 160.4448 0001359  98.2583 261.8564 15.08838326133461,6917.886,95.438,540.691,538.81,0.0
51793.0,STARLINK-3633,PAYLOAD,2024-07-18 13:48:09,15.08838003,0.0001375,53.2166,158.6601,97.9847,262.1302,2.6113e-05,1.28e-06,0.0,0 STARLINK-3633,1 51793U 22017AB  24200.57511402  .00000128  00000-0  26113-4 0  9998,2 51793  53.2166 158.6601 0001375  97.9847 262.1302 15.08838003133523,6917.886,95.438,540.703,538.8,0.0
51793.0,STARLINK-3633,PAYLOAD,2024-07-19 13:38:56,15.0884401,0.0001436,53.2179,154.2015,94.0144,266.1013,1.0013e-05,-1.29e-06,0.0,0 STARLINK-3633,1 51793U 22017AB  24201.56871361 -.00000129  00000-0  10013-4 0  9995,2 51793  53.2179 154.2015 0001436  94.0144 266.1013 15.08844010133678,6917.868,95.437,540.727,538.74,0.0
51793.0,STARLINK-3633,PAYLOAD,2024-07-19 20:00:29,15.08839562,0.0001445,53.2177,153.0144,101.4536,258.6619,5.5497e-05,5.95e-06,0.0,0 STARLINK-3633,1 51793U 22017AB  24201.83367673  .00000595  00000-0  55497-4 0  9992,2 51793  53.2177 153.0144 0001445 101.4536 258.6619 15.08839562133713,6917.882,95.438,540.746,538.747,0.0
51793.0,STARLINK-3633,PAYLOAD,2024-07-20 05:32:47,15.08848843,0.0001514,53.2178,151.232,105.1373,254.9786,0.00014171,1.969e-05,0.0,0 STARLINK-3633,1 51793U 22017AB  24202.23110877  .00001969  00000-0  14171-3 0  9998,2 51793  53.2178 151.2320 0001514 105.1373 254.9786 15.08848843133779,6917.853,95.437,540.766,538.671,0.0
51793.0,STARLINK-3633,PAYLOAD,2024-07-20 13:29:44,15.08836939,0.0001247,53.2175,149.7405,97.355,262.7584,4.6182e-05,4.47e-06,0.0,0 STARLINK-3633,1 51793U 22017AB  24202.56231820  .00000447  00000-0  46182-4 0  9994,2 51793  53.2175 149.7405 0001247  97.3550 262.7584 15.08836939133826,6917.89,95.438,540.617,538.892,0.0
51793.0,STARLINK-3633,PAYLOAD,2024-07-21 05:23:35,15.08841063,0.0001697,53.2182,146.7686,108.3455,251.7722,9.4539e-05,1.217e-05,0.0,0 STARLINK-3633,1 51793U 22017AB  24203.22471902  .00001217  00000-0  94539-4 0  9990,2 51793  53.2182 146.7686 0001697 108.3455 251.7722 15.08841063133925,6917.877,95.437,540.916,538.568,0.0
51793.0,STARLINK-3633,PAYLOAD,2024-07-22 05:14:22,15.08853531,0.0001327,53.2167,142.308,99.1389,260.9753,9.8592e-05,1.282e-05,0.0,0 STARLINK-3633,1 51793U 22017AB  24204.21831210  .00001282  00000-0  98592-4 0  9997,2 51793  53.2167 142.3080 0001327  99.1389 260.9753 15.08853531134077,6917.839,95.437,540.622,538.786,0.0
51793.0,STARLINK-3633,PAYLOAD,2024-07-23 01:54:23,15.08846928,0.0001728,53.2185,138.4353,93.7439,266.375,0.00010718,1.418e-05,0.0,0 STARLINK-3633,1 51793U 22017AB  24205.07943675  .00001418  00000-0  10718-3 0  9995,2 51793  53.2185 138.4353 0001728  93.7439 266.3750 15.08846928134201,6917.859,95.437,540.92,538.529,0.0
51793.0,STARLINK-3633,PAYLOAD,2024-07-23 13:02:05,15.08836981,0.0001302,53.2177,136.3572,129.1022,231.0086,4.4363e-05,4.18e-06,0.0,0 STARLINK-3633,1 51793U 22017AB  24205.54312071  .00000418  00000-0  44363-4 0  9990,2 51793  53.2177 136.3572 0001302 129.1022 231.0086 15.08836981134278,6917.89,95.438,540.655,538.854,0.0
51793.0,STARLINK-3633,PAYLOAD,2024-07-24 01:45:11,15.08837688,0.0001696,53.2181,133.9736,125.0848,235.0303,-4.7474e-05,-1.043e-05,0.0,0 STARLINK-3633,1 51793U 22017AB  24206.07304611 -.00001043  00000-0 -47474-4 0  9993,2 51793  53.2181 133.9736 0001696 125.0848 235.0303 15.08837688134355,6917.887,95.438,540.926,538.579,0.0
51793.0,STARLINK-3633,PAYLOAD,2024-07-24 22:25:11,15.08850196,0.0001943,53.2186,130.1098,138.2302,221.8839,-2.0105e-05,-6.08e-06,0.0,0 STARLINK-3633,1 51793U 22017AB  24206.93415792 -.00000608  00000-0 -20105-4 0  9999,2 51793  53.2186 130.1098 0001943 138.2302 221.8839 15.08850196134486,6917.849,95.437,541.058,538.37,0.0
51793.0,STARLINK-3633,PAYLOAD,2024-07-25 04:46:43,15.08855528,0.0001667,53.2181,128.9231,121.526,238.5895,7.3874e-05,8.88e-06,0.0,0 STARLINK-3633,1 51793U 22017AB  24207.19911269  .00000888  00000-0  73874-4 0  9997,2 51793  53.2181 128.9231 0001667 121.5260 238.5895 15.08855528134522,6917.833,95.437,540.851,538.545,0.0
51793.0,STARLINK-3633,PAYLOAD,2024-07-25 19:05:12,15.08832321,0.000148,53.2167,126.2427,130.6995,229.4126,0.0001339,1.843e-05,0.0,0 STARLINK-3633,1 51793U 22017AB  24207.79528733  .00001843  00000-0  13390-3 0  9991,2 51793  53.2167 126.2427 0001480 130.6995 229.4126 15.08832321134615,6917.904,95.438,540.793,538.745,0.0
51793.0,STARLINK-3633,PAYLOAD,2024-07-25 22:15:58,15.08833626,0.000191,53.2175,125.6485,134.0962,226.0188,0.0001362,1.88e-05,0.0,0 STARLINK-3633,1 51793U 22017AB  24207.92776544  .00001880  00000-0  13620-3 0  9998,2 51793  53.2175 125.6485 0001910 134.0962 226.0188 15.08833626134633,6917.9,95.438,541.086,538.444,0.0
51793.0,STARLINK-3633,PAYLOAD,2024-07-26 04:37:31,15.08838765,0.0001261,53.2173,124.466,90.0457,270.068,0.00010739,1.422e-05,0.0,0 STARLINK-3633,1 51793U 22017AB  24208.19272803  .00001422  00000-0  10739-3 0  9997,2 51793  53.2173 124.4660 0001261  90.0457 270.0680 15.08838765134671,6917.884,95.438,540.622,538.877,0.0
51793.0,STARLINK-3633,PAYLOAD,2024-07-26 10:59:04,15.08834782,0.0001253,53.2171,123.2755,92.3275,267.7861,8.5327e-05,1.07e-05,0.0,0 STARLINK-3633,1 51793U 22017AB  24208.45769191  .00001070  00000-0  85327-4 0  9992,2 51793  53.2171 123.2755 0001253  92.3275 267.7861 15.08834782134719,6917.896,95.438,540.628,538.895,0.0
51793.0,STARLINK-3633,PAYLOAD,2024-07-27 21:57:34,15.08833,0.0001112,53.2165,116.7335,88.8218,271.2901,5.5123e-05,5.89e-06,0.0,0 STARLINK-3633,1 51793U 22017AB  24209.91497713  .00000589  00000-0  55123-4 0  9997,2 51793  53.2165 116.7335 0001112  88.8218 271.2901 15.08833000134935,6917.902,95.438,540.536,538.998,0.0
51793.0,STARLINK-3633,PAYLOAD,2024-07-28 01:08:20,15.08835643,0.0001116,53.2157,116.1394,91.1485,268.9634,7.5625e-05,9.16e-06,0.0,0 STARLINK-3633,1 51793U 22017AB  24210.04745510  .00000916  00000-0  75625-4 0  9997,2 51793  53.2157 116.1394 0001116  91.1485 268.9634 15.08835643134955,6917.894,95.438,540.531,538.987,0.0
51793.0,STARLINK-3633,PAYLOAD,2024-07-28 21:48:21,15.08835663,0.0001426,53.2176,112.276,84.5602,275.5552,9.1014e-05,1.161e-05,0.0,0 STARLINK-3633,1 51793U 22017AB  24210.90857968  .00001161  00000-0  91014-4 0  9996,2 51793  53.2176 112.2760 0001426  84.5602 275.5552 15.08835663135081,6917.894,95.438,540.745,538.772,0.0
51793.0,STARLINK-3633,PAYLOAD,2024-07-29 10:31:26,15.08840319,0.0001422,53.2176,109.8947,78.3054,281.8098,0.00014331,1.994e-05,0.0,0 STARLINK-3633,1 51793U 22017AB  24211.43849593  .00001994  00000-0  14331-3 0  9990,2 51793  53.2176 109.8947 0001422  78.3054 281.8098 15.08840319135166,6917.879,95.438,540.728,538.761,0.0
51793.0,STARLINK-3633,PAYLOAD,2024-07-29 23:14:30,15.08844689,0.0001314,53.216,107.5178,79.8463,280.2678,0.00014433,2.01e-05,0.0,0 STARLINK-3633,1 51793U 22017AB  24211.96841368  .00002010  00000-0  14433-3 0  9993,2 51793  53.2160 107.5178 0001314  79.8463 280.2678 15.08844689135240,6917.866,95.437,540.64,538.822,0.0
